NORAD_CAT_ID,OBJECT_NAME,OBJECT_TYPE,EPOCH,MEAN_MOTION,ECCENTRICITY,INCLINATION,RA_OF_ASC_NODE,ARG_OF_PERICENTER,MEAN_ANOMALY,BSTAR,MEAN_MOTION_DOT,MEAN_MOTION_DDOT,TLE_LINE0,TLE_LINE1,TLE_LINE2,SEMIMAJOR_AXIS,PERIOD,APOGEE,PERIGEE,DECAYED
51128.0,STARLINK-3400,PAYLOAD,2022-09-27 12:16:03,15.08848662,0.0001648,53.2168,191.8089,56.5632,303.5518,2.2868e-05,7.6e-07,0.0,0 STARLINK-3400,1 51128U 22005AA  22270.51114908  .00000076  00000-0  22868-4 0  9991,2 51128  53.2168 191.8089 0001648  56.5632 303.5518 15.08848662 39753,6917.854,95.437,540.859,538.5790000000002,0.0
51128.0,STARLINK-3400,PAYLOAD,2022-09-27 20:12:58,15.08849252,0.0001704,53.2168,190.3219,55.0361,305.0791,0.00024496,3.614e-05,0.0,0 STARLINK-3400,1 51128U 22005AA  22270.84234243  .00003614  00000-0  24496-3 0  9991,2 51128  53.2168 190.3219 0001704  55.0361 305.0791 15.08849252 38685,6917.852,95.437,540.896,538.538,0.0
51128.0,STARLINK-3400,PAYLOAD,2022-09-28 12:06:50,15.0885306,0.0002112999999999,53.2162,187.3481,43.1329,316.9828,0.00033068,4.98e-05,0.0,0 STARLINK-3400,1 51128U 22005AA  22271.50474890  .00004980  00000-0  33068-3 0  9991,2 51128  53.2162 187.3481 0002113  43.1329 316.9828 15.08853060 38788,6917.84,95.437,541.1669999999998,538.244,0.0
51128.0,STARLINK-3400,PAYLOAD,2022-09-28 16:53:00,15.088362599999998,0.0001715,53.2162,186.4566,50.286,309.8283,3.7829e-05,3.14e-06,0.0,0 STARLINK-3400,1 51128U 22005AA  22271.70347530  .00000314  00000-0  37829-4 0  9990,2 51128  53.2162 186.4566 0001715  50.2860 309.8283 15.08836260 39935,6917.892,95.438,540.943,538.57,0.0
51128.0,STARLINK-3400,PAYLOAD,2022-09-29 04:00:41,15.08848877,0.0001583,53.2161,184.3747,53.823,306.2909,0.00024172,3.562e-05,0.0,0 STARLINK-3400,1 51128U 22005AA  22272.16715003  .00003562  00000-0  24172-3 0  9999,2 51128  53.2161 184.3747 0001583  53.8230 306.2909 15.08848877 40008,6917.853,95.437,540.813,538.623,0.0
51128.0,STARLINK-3400,PAYLOAD,2022-09-29 13:33:00,15.0884568,0.0001582,53.2157,182.5906,52.0163,308.0972,0.00021395,3.119e-05,0.0,0 STARLINK-3400,1 51128U 22005AA  22272.56458925  .00003119  00000-0  21395-3 0  9992,2 51128  53.2157 182.5906 0001582  52.0163 308.0972 15.08845680 38944,6917.863,95.437,540.822,538.634,0.0
51128.0,STARLINK-3400,PAYLOAD,2022-09-29 19:54:33,15.08849063,0.0001576999999999,53.2157,181.4015,49.0109,311.1020000000001,0.00059741,9.235e-05,0.0,0 STARLINK-3400,1 51128U 22005AA  22272.82954903  .00009235  00000-0  59741-3 0  9999,2 51128  53.2157 181.4015 0001577  49.0109 311.1020 15.08849063 38985,6917.853,95.437,540.809,538.627,0.0
51128.0,STARLINK-3400,PAYLOAD,2022-09-30 08:37:38,15.08846716,0.0001574,53.2156,179.0224,49.1054,311.0074,0.00031466,4.724e-05,0.0,0 STARLINK-3400,1 51128U 22005AA  22273.35946804  .00004724  00000-0  31466-3 0  9991,2 51128  53.2156 179.0224 0001574  49.1054 311.0074 15.08846716 39066,6917.86,95.437,540.814,538.636,0.0
51128.0,STARLINK-3400,PAYLOAD,2022-09-30 19:45:19,15.08848044,0.0001594,53.2155,176.9408,49.2507,310.8624,0.00025768,3.816e-05,0.0,0 STARLINK-3400,1 51128U 22005AA  22273.82314688  .00003816  00000-0  25768-3 0  9991,2 51128  53.2155 176.9408 0001594  49.2507 310.8624 15.08848044 39133,6917.856,95.437,540.8240000000002,538.618,0.0
51128.0,STARLINK-3400,PAYLOAD,2022-10-01 00:31:29,15.0884212,0.0001581,53.2157,176.0485,50.4922,309.6209,0.00011204,1.496e-05,0.0,0 STARLINK-3400,1 51128U 22005AA  22274.02186816  .00001496  00000-0  11204-3 0  9996,2 51128  53.2157 176.0485 0001581  50.4922 309.6209 15.08842120 40284,6917.874,95.437,540.8330000000002,538.645,0.0
51128.0,STARLINK-3400,PAYLOAD,2022-10-01 10:03:47,15.08845875,0.0001669,53.216,174.2644,51.473,308.6412,9.5794e-05,1.237e-05,0.0,0 STARLINK-3400,1 51128U 22005AA  22274.41930523  .00001237  00000-0  95794-4 0  9991,2 51128  53.2160 174.2644 0001669  51.4730 308.6412 15.08845875 39227,6917.861999999999,95.437,540.882,538.573,0.0
51128.0,STARLINK-3400,PAYLOAD,2022-10-01 21:11:29,15.08844711,0.0001647,53.2158,172.1829,54.3423,305.7723,0.00012518,1.705e-05,0.0,0 STARLINK-3400,1 51128U 22005AA  22274.88298515  .00001705  00000-0  12518-3 0  9992,2 51128  53.2158 172.1829 0001647  54.3423 305.7723 15.08844711 39291,6917.866,95.437,540.87,538.592,0.0
51128.0,STARLINK-3400,PAYLOAD,2022-10-02 03:33:02,15.08837056,0.0001669,53.2159,170.9942,51.1211,308.993,-5.736600000000001e-05,-1.201e-05,0.0,0 STARLINK-3400,1 51128U 22005AA  22275.14794824 -.00001201  00000-0 -57366-4 0  9990,2 51128  53.2159 170.9942 0001669  51.1211 308.9930 15.08837056 40457,6917.889,95.438,540.909,538.6,0.0
51128.0,STARLINK-3400,PAYLOAD,2022-10-02 11:29:59,15.08827648,0.0001705,53.2162,169.5059,54.3654,305.7497,-2.986e-05,-7.63e-06,0.0,0 STARLINK-3400,1 51128U 22005AA  22275.47916156 -.00000763  00000-0 -29860-4 0  9990,2 51128  53.2162 169.5059 0001705  54.3654 305.7497 15.08827648 40506,6917.918000000002,95.438,540.9630000000002,538.604,0.0
51128.0,STARLINK-3400,PAYLOAD,2022-10-02 17:51:31,15.08836624,0.0001724,53.2158,168.31599999999997,58.2937,301.8223,3.3055e-05,2.38e-06,0.0,0 STARLINK-3400,1 51128U 22005AA  22275.74411593  .00000238  00000-0  33055-4 0  9991,2 51128  53.2158 168.3160 0001724  58.2937 301.8223 15.08836624 40541,6917.891,95.438,540.948,538.563,0.0
51128.0,STARLINK-3400,PAYLOAD,2022-10-02 19:26:54,15.08836575,0.0001816,53.2152,168.0206,55.8077,304.3087,-1.1527e-05,-4.72e-06,0.0,0 STARLINK-3400,1 51128U 22005AA  22275.81035284 -.00000472  00000-0 -11527-4 0  9990,2 51128  53.2152 168.0206 0001816  55.8077 304.3087 15.08836575 39430,6917.891,95.438,541.012,538.5,0.0
51128.0,STARLINK-3400,PAYLOAD,2022-10-03 01:48:26,15.08844048,0.0001704,53.2155,166.8309,57.7989,302.3169,0.00020119,2.916e-05,0.0,0 STARLINK-3400,1 51128U 22005AA  22276.07531065  .00002916  00000-0  20119-3 0  9996,2 51128  53.2155 166.8309 0001704  57.7989 302.3169 15.08844048 40594,6917.868,95.437,540.9119999999998,538.554,0.0
51128.0,STARLINK-3400,PAYLOAD,2022-10-03 11:20:45,15.08860577,0.0001684,53.2151,165.047,55.9157,304.1995,0.00069794,0.00010843,0.0,0 STARLINK-3400,1 51128U 22005AA  22276.47274604  .00010843  00000-0  69794-3 0  9993,2 51128  53.2151 165.0470 0001684  55.9157 304.1995 15.08860577 40653,6917.816999999999,95.436,540.847,538.518,0.0
51128.0,STARLINK-3400,PAYLOAD,2022-10-03 12:56:08,15.08855893,0.0001721999999999,53.2147,164.7507,57.5745,302.5413,0.00075067,0.00011684,0.0,0 STARLINK-3400,1 51128U 22005AA  22276.53898847  .00011684  00000-0  75067-3 0  9995,2 51128  53.2147 164.7507 0001722  57.5745 302.5413 15.08855893 39547,6917.831999999999,95.437,540.888,538.506,0.0
51128.0,STARLINK-3400,PAYLOAD,2022-10-03 20:53:04,15.08853448,0.0001558,53.2152,163.2629,59.8871,300.2276,0.0004406,6.734e-05,0.0,0 STARLINK-3400,1 51128U 22005AA  22276.87018541  .00006734  00000-0  44060-3 0  9996,2 51128  53.2152 163.2629 0001558  59.8871 300.2276 15.08853448 40711,6917.839,95.437,540.7819999999998,538.626,0.0
51128.0,STARLINK-3400,PAYLOAD,2022-10-04 01:39:13,15.08844675,0.0001527,53.2155,162.3714,61.1259,298.9886,0.00035625,5.387e-05,0.0,0 STARLINK-3400,1 51128U 22005AA  22277.06890767  .00005387  00000-0  35625-3 0  9996,2 51128  53.2155 162.3714 0001527  61.1259 298.9886 15.08844675 40746,6917.866,95.437,540.7869999999998,538.675,0.0
51128.0,STARLINK-3400,PAYLOAD,2022-10-04 11:11:32,15.08847471,0.000169,53.2159,160.5875,54.4982,305.6167,0.00032518,4.892e-05,0.0,0 STARLINK-3400,1 51128U 22005AA  22277.46634501  .00004892  00000-0  32518-3 0  9990,2 51128  53.2159 160.5875 0001690  54.4982 305.6167 15.08847471 39683,6917.858,95.437,540.8919999999998,538.553,0.0
51128.0,STARLINK-3400,PAYLOAD,2022-10-04 19:08:28,15.08836034,0.0001774,53.2153,159.0996,56.5459,303.5703,3.2866e-05,2.35e-06,0.0,0 STARLINK-3400,1 51128U 22005AA  22277.79755075  .00000235  00000-0  32866-4 0  9990,2 51128  53.2153 159.0996 0001774  56.5459 303.5703 15.08836034 40856,6917.893,95.438,540.985,538.53,0.0
51128.0,STARLINK-3400,PAYLOAD,2022-10-05 01:30:01,15.08831253,0.0001602,53.2163,157.91,54.798,305.3162,2.7557e-05,1.5e-06,0.0,0 STARLINK-3400,1 51128U 22005AA  22278.06251952  .00000150  00000-0  27557-4 0  9993,2 51128  53.2163 157.9100 0001602  54.7980 305.3162 15.08831253 40891,6917.906999999997,95.438,540.88,538.664,0.0
51128.0,STARLINK-3400,PAYLOAD,2022-10-05 11:02:19,15.08838241,0.0001686,53.2158,156.1261,53.4704,306.6443,-6.9595e-05,-1.395e-05,0.0,0 STARLINK-3400,1 51128U 22005AA  22278.45995184 -.00001395  00000-0 -69595-4 0  9990,2 51128  53.2158 156.1261 0001686  53.4704 306.6443 15.08838241 40953,6917.886,95.438,540.9169999999998,538.5840000000002,0.0
51128.0,STARLINK-3400,PAYLOAD,2022-10-05 20:34:39,15.08832006,0.0001668,53.2158,154.3419,54.9471,305.1677,-4.8261e-05,-1.056e-05,0.0,0 STARLINK-3400,1 51128U 22005AA  22278.85739756 -.00001056  00000-0 -48261-4 0  9996,2 51128  53.2158 154.3419 0001668  54.9471 305.1677 15.08832006 39892,6917.905,95.438,540.924,538.616,0.0
51128.0,STARLINK-3400,PAYLOAD,2022-10-06 10:53:07,15.08844432,0.0001824,53.2153,151.6665,53.6245,306.4915,0.00036809,5.576e-05,0.0,0 STARLINK-3400,1 51128U 22005AA  22279.45355692  .00005576  00000-0  36809-3 0  9999,2 51128  53.2153 151.6665 0001824  53.6245 306.4915 15.08844432 39984,6917.8669999999975,95.437,540.994,538.47,0.0
51128.0,STARLINK-3400,PAYLOAD,2022-10-06 22:00:49,15.08839841,0.0001679,53.2154,149.584,50.1701,309.9439,0.0003765,5.709e-05,0.0,0 STARLINK-3400,1 51128U 22005AA  22279.91724199  .00005709  00000-0  37650-3 0  9995,2 51128  53.2154 149.5840 0001679  50.1701 309.9439 15.08839841 41174,6917.880999999999,95.438,540.9069999999998,538.5840000000002,0.0
51128.0,STARLINK-3400,PAYLOAD,2022-10-07 10:43:54,15.08843133,0.0001798,53.2167,147.207,50.502,309.6131,0.00033793,5.095e-05,0.0,0 STARLINK-3400,1 51128U 22005AA  22280.44716170  .00005095  00000-0  33793-3 0  9997,2 51128  53.2167 147.2070 0001798  50.5020 309.6131 15.08843133 40138,6917.871,95.437,540.98,538.492,0.0
